IRIDIUM 7               
1 24793U 97020B   25175.91241592  .00000249  00000+0  79093-4 0  9992
2 24793  86.3983 173.6752 0002585  89.2225 270.9268 14.35943453473226
IRIDIUM 5               
1 24795U 97020D   25175.74225308  .00003472  00000+0  28227-3 0  9995
2 24795  86.3886  80.2498 0111086 110.6965 250.6214 14.94402718486620
IRIDIUM 4               
1 24796U 97020E   25176.23921933  .00000267  00000+0  83544-4 0  9991
2 24796  86.3981 170.4136 0002368  91.3494 268.7975 14.36846513473656
IRIDIUM 914             
1 24836U 97030A   25175.73363426  .00000307  00000+0  89588-4 0  9997
2 24836  86.3958 179.1991 0002436 128.6711 231.4707 14.40876813608215
IRIDIUM 16              
1 24841U 97030F   25176.05261739  .00000253  00000+0  75923-4 0  9991
2 24841  86.4047 201.9714 0004141  65.4807 294.6823 14.38718899468396
IRIDIUM 911             
1 24842U 97030G   25175.58172885  .00000361  00000+0  92236-4 0  9998
2 24842  86.4472 200.9311 0016487  75.6419 284.6613 14.47645370476151
IRIDIUM 17              
1 24870U 97034B   25175.69674599  .00000269  00000+0  82582-4 0  9994
2 24870  86.3958 231.5944 0002584  53.8777 306.2659 14.37833279464660
IRIDIUM 920             
1 24871U 97034C   25175.99792293  .00000273  00000+0  77795-4 0  9995
2 24871  86.3984 210.6850 0013570  61.8504 298.4065 14.41538661467969
